[{"OBJECT_NAME":"STARLINK-3739","OBJECT_ID":"2022-041F","EPOCH":"2026-03-09T12:03:07.095744","MEAN_MOTION":15.08842494,"ECCENTRICITY":0.00013622,"INCLINATION":53.2168,"RA_OF_ASC_NODE":109.9632,"ARG_OF_PERICENTER":84.8978,"MEAN_ANOMALY":275.217,"EPHEMERIS_TYPE":0,"CLASSIFICATION_TYPE":"U","NORAD_CAT_ID":52266,"ELEMENT_SET_NO":999,"REV_AT_EPOCH":21433,"BSTAR":3.4753268e-5,"MEAN_MOTION_DOT":2.65e-6,"MEAN_MOTION_DDOT":0},{"OBJECT_NAME":"FENGYUN 1C DEB","OBJECT_ID":"1999-025CUF","EPOCH":"2026-03-09T01:34:38.628768","MEAN_MOTION":15.17132493,"ECCENTRICITY":0.01273829,"INCLINATION":98.8955,"RA_OF_ASC_NODE":293.2327,"ARG_OF_PERICENTER":89.1897,"MEAN_ANOMALY":272.3925,"EPHEMERIS_TYPE":0,"CLASSIFICATION_TYPE":"U","NORAD_CAT_ID":32185,"ELEMENT_SET_NO":999,"REV_AT_EPOCH":96318,"BSTAR":0.0036969643,"MEAN_MOTION_DOT":0.00091378,"MEAN_MOTION_DDOT":0}]
